TDRS 3                  
1 19548U 88091B   18079.40871235 -.00000302  00000-0  00000+0 0  9993
2 19548  14.4410   5.1682 0038770 316.0981 301.5181  1.00273831 95174
SKYNET 4C               
1 20776U 90079A   18076.45812459  .00000127  00000-0  00000+0 0  9996
2 20776  13.9219  13.4103 0003223 341.9653  18.0284  1.00277232100729
TDRS 5                  
1 21639U 91054B   18078.73941896  .00000086  00000-0  00000-0 0  9995
2 21639  14.5267  18.5392 0025751 344.4523 272.8623  1.00278921 97513
TDRS 6                  
1 22314U 93003B   18079.17583889 -.00000294  00000-0  00000+0 0  9996
2 22314  14.0819  21.5213 0007815 322.8998 210.6213  1.00277240 92181
ASTRA 1D                
1 23331U 94070A   18079.06594120 -.00000270  00000-0  00000+0 0  9993
2 23331   7.9688  47.3475 0003996 314.5896 126.3424  1.00271458 85974
BRASILSAT B2            
1 23536U 95016A   18078.59749069 -.00000283  00000-0  00000-0 0  9997
2 23536   7.5968  49.2513 0002456 317.3917 317.5337  1.00270482 84193
AMSC 1                  
1 23553U 95019A   18077.90129001 -.00000117  00000-0  00000+0 0  9996
2 23553  10.4118  37.5152 0004939 346.5973  13.4230  1.00272009 83960
TDRS 7                  
1 23613U 95035B   18078.91464125 -.00000202  00000-0  00000-0 0  9998
2 23613  15.0528  12.2299 0033138   1.9733 217.3166  1.00272305 83056
INMARSAT 3-F1           
1 23839U 96020A   18079.06296096  .00000001  00000-0  00000+0 0  9995
2 23839   4.5054  66.2322 0006097 295.4591 262.9954  1.00270906 80429
ASTRA 1F                
1 23842U 96021A   18078.94123993  .00000129  00000-0  00000-0 0  9993
2 23842   0.0177  61.2993 0003541 294.8485 204.4324  1.00272733 22153
MSAT M1                 
1 23846U 96022A   18078.93593316 -.00000088  00000-0  00000+0 0  9991
2 23846   8.1558  46.8170 0006240 318.2806  41.7399  1.00272696 80248
INMARSAT 3-F2           
1 24307U 96053A   18079.29507720 -.00000132  00000-0  00000+0 0  9992
2 24307   3.1887  76.3391 0007807 276.8022 275.3445  1.00271285 78835
AMC-1 (GE-1)            
1 24315U 96054A   18078.10728520  .00000060  00000-0  00000-0 0  9994
2 24315   2.1433  83.6525 0002455 260.4232 100.2338  1.00272614 16124
AFRICASAT-2 (MEASAT-2)  
1 24653U 96063B   18079.50315674 -.00000232  00000-0  00000+0 0  9997
2 24653   7.8956  47.7494 0008223 219.8272 239.5265  1.00271324 78162
INMARSAT 3-F3           
1 24674U 96070A   18078.60115597  .00000030  00000-0  00000-0 0  9996
2 24674   3.9708  70.4431 0005639 290.0673 211.0640  1.00272153 77774
AMC-2 (GE-2)            
1 24713U 97002A   18079.40740380 -.00000218  00000-0  00000+0 0  9997
2 24713   4.8444  64.5154 0005545 299.6743 235.5025  1.00270582 28138
INTELSAT 26 (IS-26)     
1 24732U 97007A   18078.87517056 -.00000015  00000-0  00000-0 0  9991
2 24732   7.8742  48.1000 0004629 338.0385 172.0512  1.00271711 42545
GALAXY 25 (G-25)        
1 24812U 97026A   18078.76632983 -.00000171  00000-0  00000+0 0  9998
2 24812   0.0687  97.3572 0003655 274.6729 347.9708  1.00270993 76168
INTELSAT 5 (IS-5)       
1 24916U 97046A   18078.26772308 -.00000149  00000-0  00000+0 0  9991
2 24916   4.0820  69.7472 0002984 290.0018  70.2736  1.00272371 75411
AMC-3 (GE-3)            
1 24936U 97050A   18079.15188193 -.00000268  00000-0  00000+0 0  9992
2 24936   0.9663  91.1149 0002557 251.3558 177.8299  1.00272204 75253
NSS-5                   
1 24957U 97053A   18078.94288483  .00000101  00000-0  00000-0 0  9993
2 24957   4.3676  67.9291 0003531 296.7821 202.6282  1.00272877 74980
ASTRA 1G                
1 25071U 97076A   18079.13974668  .00000098  00000-0  00000+0 0  9999
2 25071   2.8861  77.3125 0003147 280.6554 281.0939  1.00275176 74341
BRASILSAT B3            
1 25152U 98006A   18077.87225549 -.00000289  00000-0  00000+0 0  9992
2 25152   4.5455  66.9206 0002878 293.5096  66.7293  1.00270538 73726
INMARSAT 3-F5           
1 25153U 98006B   18079.22939375 -.00000295  00000-0  00000+0 0  9990
2 25153   3.1250  73.5111 0004459 291.0704 201.7228  1.00270372 73691
NSS-806                 
1 25239U 98014A   18078.79285418 -.00000288  00000-0  00000+0 0  9999
2 25239   0.0631   2.9007 0004588 357.0277  55.2861  1.00272269 73452
CHINASAT 5A (ZX 5A)     
1 25354U 98033A   18079.57577316 -.00000362  00000-0  00000+0 0  9999
2 25354   1.8262  85.5560 0004199 229.3204 196.0104  1.00271770 77059
THOR III                
1 25358U 98035A   18078.68000972 -.00000049  00000-0  00000+0 0  9997
2 25358   5.8884  57.5414 0002750 307.3478  52.7831  1.00273465 72519
INTELSAT 805 (IS-805)   
1 25371U 98037A   18078.80573251 -.00000040  00000-0  00000-0 0  9995
2 25371   0.6013  93.5669 0003236 272.1596 270.6137  1.00272054 72358
ASTRA 2A                
1 25462U 98050A   18079.09979900 -.00000368  00000-0  00000+0 0  9996
2 25462   0.0786 252.5065 0002212 102.9836 331.5249  1.00273063 71549
JCSAT-4A                
1 25630U 99006A   18078.80854896 -.00000210  00000-0  00000+0 0  9995
2 25630   2.8605  78.6347 0005484 268.6864 271.0335  1.00270529 69805
SKYNET 4E               
1 25639U 99009B   18078.15719976 -.00000033  00000-0  00000+0 0  9997
2 25639  10.3584  26.5296 0003838 336.7271 228.7210  1.00273277 69814
ASIASAT 3S              
1 25657U 99013A   18078.80301576 -.00000244  00000-0  00000-0 0  9992
2 25657   3.0697  76.9707 0003871 272.6562 262.7867  1.00270643 69621
NIMIQ 1                 
1 25740U 99027A   18078.72823833 -.00000207  00000-0  00000+0 0  9994
2 25740   0.0748 281.9222 0004612  80.3309 350.5750  1.00270045 69011
ASTRA 1H                
1 25785U 99033A   18079.20910111 -.00000283  00000-0  00000+0 0  9994
2 25785   4.3532  68.0827 0003142 281.2946 196.5098  1.00273754 68594
ABS-7                   
1 25894U 99046A   18078.87412529 -.00000371  00000-0  00000+0 0  9999
2 25894   0.0093 195.6314 0002045 176.4125 236.1369  1.00272131 66940
ABS-6                   
1 25924U 99053A   18078.06787004 -.00000130  00000-0  00000-0 0  9999
2 25924   0.0108 170.2686 0002416 201.7655 347.9717  1.00269303 67681
TELSTAR 12 (ORION 2)    
1 25949U 99059A   18078.73799303 -.00000071  00000-0  00000+0 0  9994
2 25949   1.5183  87.6304 0002873 270.9397 335.1211  1.00271785 67330
AMC-4 (GE-4)            
1 25954U 99060A   18077.88477905  .00000078  00000-0  00000-0 0  9995
2 25954   0.0248 100.6863 0002358 258.2603   1.0438  1.00272758 13528
GALAXY 11 (G-11)        
1 26038U 99071A   18079.26507561  .00000128  00000-0  00000+0 0  9992
2 26038   0.1054  89.9917 0000415 238.0826 349.9851  1.00271687 66916
SUPERBIRD-B2            
1 26095U 00012A   18078.84215963 -.00000102  00000-0  00000+0 0  9990
2 26095   0.9903  91.9523 0003150 274.3175 276.1793  1.00271773 66232
ASIASTAR                
1 26107U 00016A   18078.93707413 -.00000341  00000-0  00000-0 0  9990
2 26107   2.2451  81.1910 0004352 279.8182 258.7605  1.00272740 65730
EUTELSAT 80A            
1 26369U 00028A   18078.32817883 -.00000111  00000-0  00000+0 0  9993
2 26369   1.5910  85.0916 0006559 273.1440 284.0324  1.00272090 65273
TDRS 8                  
1 26388U 00034A   18079.40698713 -.00000234  00000-0  00000+0 0  9996
2 26388   7.9460  53.5545 0010840 280.1733  79.7866  1.00277639 64984
ECHOSTAR 6              
1 26402U 00038A   18078.45327095 -.00000154  00000-0  00000-0 0  9995
2 26402   4.7015  65.6975 0003128 284.6295 253.5835  1.00272366 64740
INTELSAT 9 (IS-9)       
1 26451U 00043A   18079.34328756 -.00000224  00000-0  00000+0 0  9996
2 26451   4.0697  69.9528 0002765 297.8451 264.1091  1.00271460 64656
BRASILSAT B4            
1 26469U 00046A   18078.99589728 -.00000178  00000-0  00000+0 0  9994
2 26469   2.2289  83.4236 0002922 277.9652  82.6333  1.00271381 64447
NILESAT 102             
1 26470U 00046B   18079.22078810 -.00000067  00000-0  00000+0 0  9995
2 26470   2.2566  82.3848 0005145 259.7552 268.0251  1.00271056 64449
ASTRA 2B                
1 26494U 00054A   18079.22061748 -.00000161  00000-0  00000+0 0  9997
2 26494   2.7768  77.9830 0006104 295.3164 224.2165  1.00272054 64049
AMC-7 (GE-7)            
1 26495U 00054B   18078.88232247  .00000079  00000-0  00000+0 0  9990
2 26495   0.0407  86.1249 0001885 234.3308  39.5230  1.00273844 64061
NSS-11 (AAP-1)          
1 26554U 00059A   18078.46091025  .00000016  00000-0  00000-0 0  9994
2 26554   0.0257 284.0558 0002609  73.7827 161.0284  1.00272094 11101
N-SAT-110 (JCSAT-110)   
1 26559U 00060A   18078.94269390 -.00000360  00000-0  00000-0 0  9999
2 26559   0.0429 101.0229 0001550 352.1832 173.6387  1.00270104 11084
AMC-6 (GE-6)            
1 26580U 00067A   18079.36606470 -.00000225  00000-0  00000+0 0  9990
2 26580   0.0150 179.1991 0002491 191.3841 216.0324  1.00268801 63798
INTELSAT 12 (IS-12)     
1 26590U 00068A   18079.14075462  .00000128  00000-0  00000+0 0  9990
2 26590   1.0741  91.1932 0002483 266.9383 275.1392  1.00270767 63600
INTELSAT 1R (IS-1R)     
1 26608U 00072A   18079.40188179 -.00000146  00000-0  00000+0 0  9995
2 26608   0.8879  92.5894 0002285 260.5591 126.5007  1.00271762 63464
ANIK F1                 
1 26624U 00076A   18077.80838413 -.00000083  00000-0  00000-0 0  9993
2 26624   0.0145 174.7829 0001053 231.0233 314.1932  1.00272504 12954
ASTRA 2D                
1 26638U 00081A   18078.53416007  .00000040  00000-0  00000-0 0  9998
2 26638   4.1805  68.7713 0002278 280.7803  79.4845  1.00275038 22719
AMC-8 (GE-8)            
1 26639U 00081B   18078.75254229  .00000095  00000-0  00000-0 0  9999
2 26639   0.0141 270.1236 0002071  53.0229 345.9856  1.00273296 63140
SKYNET 4F               
1 26695U 01005B   18078.25674247 -.00000251  00000-0  00000+0 0  9993
2 26695   9.1992  34.7305 0002707 309.9941 250.4939  1.00272088 62674
EUTELSAT 33C            
1 26719U 01011A   18078.86438102  .00000146  00000-0  00000-0 0  9995
2 26719   0.1365  73.0383 0006275 304.0900 144.4850  1.00274464 62352
